{
"type": "FeatureCollection",
"name": "australia_rivers",
"crs": { "type": "name", "properties": { "name": "urn:ogc:def:crs:OGC:1.3:CRS84" } },
"features": [
{ "type": "Feature", "properties": { "dissolve": "1090River", "scalerank": 9.0, "featurecla": "River", "name": "Macintyre", "rivernum": 1090, "min_zoom": 7.1, "name_en": "Macintyre", "min_label": 8.1 }, "geometry": { "type": "MultiLineString", "coordinates": [ [ [ 151.505951, -29.840265 ], [ 151.156668, -29.778253 ], [ 151.122488, -29.700046 ], [ 151.125906, -29.535821 ], [ 151.009776, -29.425958 ], [ 150.967214, -29.304539 ], [ 150.90919, -29.261407 ], [ 150.966807, -29.1513 ], [ 150.944347, -29.073093 ], [ 150.865245, -29.024591 ], [ 150.734386, -28.807794 ], [ 150.466889, -28.649835 ] ] ] } },
{ "type": "Feature", "properties": { "dissolve": "1100River", "scalerank": 9.0, "featurecla": "River", "name": "Burnett", "rivernum": 1100, "min_zoom": 7.1, "name_en": "Burnett", "min_label": 8.1 }, "geometry": { "type": "MultiLineString", "coordinates": [ [ [ 151.801524, -25.776707 ], [ 151.815115, -25.701593 ], [ 151.650076, -25.584893 ], [ 151.696788, -25.397963 ], [ 151.784923, -25.387384 ], [ 151.820404, -25.338556 ], [ 151.8956, -25.35353 ], [ 151.95696, -25.288507 ], [ 151.999522, -25.296808 ], [ 152.024099, -25.254246 ], [ 151.987071, -25.132257 ], [ 152.02003, -25.085138 ], [ 152.060964, -25.044285 ], [ 152.105724, -25.052748 ], [ 152.112397, -24.973647 ], [ 152.185069, -24.995131 ], [ 152.193614, -24.945652 ], [ 152.359386, -24.851983 ], [ 152.404796, -24.748712 ] ] ] } },
{ "type": "Feature", "properties": { "dissolve": "1101River", "scalerank": 9.0, "featurecla": "River", "name": "Swan", "rivernum": 1101, "min_zoom": 7.1, "name_en": "Swan", "min_label": 8.1 }, "geometry": { "type": "MultiLineString", "coordinates": [ [ [ 117.543875, -32.642755 ], [ 117.598399, -32.598158 ], [ 117.617686, -32.527032 ], [ 117.356456, -32.341811 ], [ 117.272553, -32.346856 ], [ 117.115733, -32.227553 ], [ 116.985362, -32.195733 ], [ 116.920665, -32.095229 ], [ 116.818451, -32.057061 ], [ 116.774018, -31.897638 ], [ 116.79713, -31.813979 ], [ 116.675222, -31.741062 ], [ 116.647634, -31.66489 ], [ 116.471202, -31.521173 ], [ 116.19866, -31.592462 ], [ 116.051768, -31.721694 ], [ 115.97169, -31.87241 ], [ 115.735037, -32.019545 ] ] ] } },
{ "type": "Feature", "properties": { "dissolve": "257Lake Centerline", "scalerank": 6.0, "featurecla": "Lake Centerline", "name": "Ord", "rivernum": 257, "min_zoom": 5.0, "name_en": "Ord", "min_label": 6.0 }, "geometry": { "type": "MultiLineString", "coordinates": [ [ [ 128.73878, -16.107924 ], [ 128.697765, -16.543145 ], [ 128.76295, -16.669122 ], [ 128.73406, -16.788507 ] ] ] } },
{ "type": "Feature", "properties": { "dissolve": "257River", "scalerank": 6.0, "featurecla": "River", "name": "Ord", "rivernum": 257, "min_zoom": 5.0, "name_en": "Ord", "min_label": 6.0 }, "geometry": { "type": "MultiLineString", "coordinates": [ [ [ 128.739024, -16.10825 ], [ 128.680186, -16.083673 ], [ 128.765066, -15.877293 ], [ 128.693858, -15.69728 ], [ 128.694021, -15.576104 ], [ 128.565684, -15.568699 ], [ 128.536225, -15.517918 ], [ 128.482188, -15.574884 ], [ 128.424815, -15.514337 ], [ 128.364838, -15.525323 ], [ 128.289236, -15.401788 ] ], [ [ 127.578136, -17.623224 ], [ 127.696788, -17.560561 ], [ 127.743582, -17.573093 ], [ 127.852468, -17.476007 ], [ 127.92921, -17.462905 ], [ 128.055919, -17.471205 ], [ 128.232595, -17.542983 ], [ 128.334239, -17.690932 ], [ 128.397472, -17.708836 ], [ 128.61964, -17.587823 ], [ 128.645518, -17.540053 ], [ 128.750499, -17.479832 ], [ 128.906179, -17.286798 ], [ 128.84669, -17.175958 ], [ 128.882091, -17.077651 ], [ 128.700694, -16.960789 ], [ 128.685639, -16.841241 ], [ 128.73406, -16.788507 ] ] ] } },
{ "type": "Feature", "properties": { "dissolve": "312River", "scalerank": 6.0, "featurecla": "River", "name": "Katherine", "rivernum": 312, "min_zoom": 5.0, "name_en": "Katherine", "min_label": 6.0 }, "geometry": { "type": "MultiLineString", "coordinates": [ [ [ 133.134288, -13.298272 ], [ 133.222341, -13.462091 ], [ 133.227794, -13.639825 ], [ 133.192556, -13.71144 ], [ 133.110932, -13.749526 ], [ 132.93214, -13.695001 ], [ 132.792247, -13.852716 ], [ 132.723399, -14.13714 ], [ 132.681814, -14.195245 ], [ 132.572032, -14.28517 ], [ 132.415538, -14.31935 ], [ 132.415538, -14.353448 ], [ 132.362885, -14.36769 ], [ 132.220714, -14.508233 ], [ 132.06544, -14.579441 ], [ 131.962413, -14.69614 ], [ 131.843679, -14.705743 ] ] ] } },
{ "type": "Feature", "properties": { "dissolve": "314River", "scalerank": 6.0, "featurecla": "River", "name": "Mitchell", "rivernum": 314, "min_zoom": 5.0, "name_en": "Mitchell", "min_label": 6.0 }, "geometry": { "type": "MultiLineString", "coordinates": [ [ [ 143.468761, -16.484308 ], [ 143.42213, -16.500502 ], [ 143.193614, -16.426935 ], [ 143.072276, -16.349949 ], [ 142.976492, -16.235772 ], [ 142.620942, -16.011407 ], [ 142.457612, -15.95672 ], [ 142.395925, -15.971043 ], [ 142.351003, -15.915216 ], [ 142.302826, -15.919366 ], [ 142.248546, -15.799168 ], [ 142.111257, -15.658624 ], [ 141.963878, -15.405206 ], [ 141.967296, -15.339776 ], [ 141.904877, -15.285577 ], [ 141.812511, -15.281264 ], [ 141.761974, -15.229913 ], [ 141.690115, -15.244155 ], [ 141.60434, -15.203139 ] ] ] } },
{ "type": "Feature", "properties": { "dissolve": "331River", "scalerank": 6.0, "featurecla": "River", "name": "Fitzroy", "rivernum": 331, "min_zoom": 5.0, "name_en": "Fitzroy", "min_label": 6.0 }, "geometry": { "type": "MultiLineString", "coordinates": [ [ [ 127.152192, -17.383152 ], [ 126.945974, -17.478041 ], [ 126.657237, -17.500421 ], [ 126.317475, -17.429864 ], [ 126.274425, -17.450698 ], [ 126.21339, -17.528741 ], [ 126.124278, -17.566827 ], [ 126.124441, -17.628432 ], [ 126.017833, -17.64544 ], [ 125.885265, -17.891615 ], [ 125.780935, -17.964695 ], [ 125.692882, -18.108738 ], [ 125.623627, -18.143243 ], [ 125.510753, -18.276544 ], [ 125.318858, -18.338718 ], [ 125.138927, -18.481948 ], [ 124.993256, -18.51336 ], [ 124.643321, -18.437677 ], [ 124.470225, -18.167332 ], [ 124.384532, -18.093764 ], [ 124.224213, -18.067315 ], [ 124.108328, -18.091648 ], [ 124.061127, -18.133803 ], [ 123.962006, -18.112156 ], [ 123.753835, -17.930027 ], [ 123.638927, -17.706069 ], [ 123.570323, -17.685479 ], [ 123.567556, -17.587905 ] ] ] } },
{ "type": "Feature", "properties": { "dissolve": "341River", "scalerank": 6.0, "featurecla": "River", "name": "Daly", "rivernum": 341, "min_zoom": 5.0, "name_en": "Daly", "min_label": 6.0 }, "geometry": { "type": "MultiLineString", "coordinates": [ [ [ 131.843679, -14.705743 ], [ 131.718028, -14.656264 ], [ 131.65032, -14.413425 ], [ 131.588796, -14.404962 ], [ 131.575043, -14.357436 ], [ 131.445242, -14.268731 ], [ 131.400401, -14.182306 ], [ 131.30185, -14.139662 ], [ 131.212413, -14.048761 ], [ 131.236257, -13.997247 ], [ 131.181407, -13.951023 ], [ 131.212413, -13.863783 ], [ 131.097585, -13.830011 ], [ 131.041596, -13.851495 ], [ 131.022472, -13.898126 ], [ 130.855561, -13.928725 ], [ 130.7553, -13.876479 ], [ 130.656749, -13.67254 ], [ 130.578298, -13.668308 ], [ 130.450043, -13.465346 ], [ 130.385834, -13.486261 ], [ 130.28655, -13.428643 ], [ 130.324474, -13.35296 ] ] ] } },
{ "type": "Feature", "properties": { "dissolve": "476Lake Centerline", "scalerank": 7.0, "featurecla": "Lake Centerline", "name": "Lachlan", "rivernum": 476, "min_zoom": 6.0, "name_en": "Lachlan", "min_label": 7.0 }, "geometry": { "type": "MultiLineString", "coordinates": [ [ [ 149.048513, -34.003757 ], [ 148.996349, -33.931573 ], [ 148.963796, -33.979669 ] ] ] } },
{ "type": "Feature", "properties": { "dissolve": "476River", "scalerank": 7.0, "featurecla": "River", "name": "Lachlan", "rivernum": 476, "min_zoom": 6.0, "name_en": "Lachlan", "min_label": 7.0 }, "geometry": { "type": "MultiLineString", "coordinates": [ [ [ 148.963796, -33.979669 ], [ 148.92335, -33.993341 ], [ 148.891694, -33.952325 ], [ 148.830984, -33.950616 ], [ 148.62794, -33.822117 ], [ 148.547374, -33.663263 ], [ 148.408783, -33.595554 ], [ 148.410655, -33.537937 ], [ 148.230724, -33.476251 ], [ 148.163097, -33.409519 ], [ 147.891124, -33.422052 ], [ 147.706554, -33.383803 ], [ 147.487804, -33.246433 ], [ 147.353608, -33.232354 ], [ 147.305593, -33.167494 ], [ 147.186046, -33.104181 ], [ 146.847097, -33.094252 ], [ 146.695567, -33.03338 ], [ 146.498057, -33.124526 ], [ 146.443777, -33.222182 ], [ 146.335134, -33.208347 ], [ 146.173106, -33.251967 ], [ 146.058849, -33.397393 ], [ 145.771495, -33.342299 ], [ 145.604991, -33.387221 ], [ 145.513194, -33.50506 ], [ 145.353119, -33.560886 ], [ 145.22047, -33.691339 ], [ 145.053803, -33.720229 ], [ 144.983165, -33.763849 ], [ 144.964854, -33.819838 ], [ 144.681651, -34.096368 ], [ 144.49171, -34.222996 ], [ 144.21046, -34.254408 ], [ 144.119884, -34.20558 ], [ 144.060557, -34.279718 ], [ 143.944591, -34.289076 ], [ 143.756847, -34.404718 ], [ 143.649018, -34.543634 ], [ 143.622325, -34.637628 ], [ 143.375662, -34.717462 ], [ 143.30364, -34.719578 ], [ 143.2553, -34.685968 ], [ 143.221202, -34.73325 ] ], [ [ 149.279063, -34.746921 ], [ 149.176768, -34.649835 ], [ 149.159434, -34.544854 ], [ 149.050955, -34.478692 ], [ 149.130463, -34.265558 ], [ 149.027192, -34.134454 ], [ 149.048513, -34.003757 ] ] ] } },
{ "type": "Feature", "properties": { "dissolve": "54River", "scalerank": 3.0, "featurecla": "River", "name": "Murray", "rivernum": 54, "min_zoom": 3.0, "name_en": "Murray", "min_label": 4.0 }, "geometry": { "type": "MultiLineString", "coordinates": [ [ [ 141.92628, -34.116876 ], [ 141.70574, -34.11004 ], [ 141.545909, -34.218683 ], [ 141.510509, -34.172214 ], [ 141.391612, -34.133722 ], [ 141.330577, -34.144871 ], [ 141.241466, -34.076104 ], [ 141.045339, -34.062188 ], [ 140.941824, -33.98919 ], [ 140.752859, -34.086602 ], [ 140.794363, -34.12241 ], [ 140.765636, -34.211765 ], [ 140.713145, -34.261651 ], [ 140.652192, -34.260186 ], [ 140.562673, -34.348972 ], [ 140.596772, -34.373468 ], [ 140.583018, -34.443211 ], [ 140.549083, -34.452569 ], [ 140.487315, -34.391941 ], [ 140.411713, -34.374933 ], [ 140.384532, -34.239109 ], [ 140.33196, -34.172377 ], [ 139.995942, -34.183933 ], [ 139.926524, -34.151381 ], [ 139.960053, -34.127455 ], [ 139.954031, -34.088881 ], [ 139.87851, -34.107599 ], [ 139.838634, -34.038263 ], [ 139.81544, -34.062188 ], [ 139.681244, -34.031101 ], [ 139.582612, -34.500421 ], [ 139.610037, -34.634129 ], [ 139.667003, -34.650567 ], [ 139.665131, -34.675144 ], [ 139.54599, -34.753595 ], [ 139.578136, -34.764662 ], [ 139.555919, -34.821954 ], [ 139.64088, -34.885431 ], [ 139.582612, -34.910333 ], [ 139.445974, -34.856622 ], [ 139.260509, -34.965834 ], [ 139.375173, -35.025811 ], [ 139.292979, -35.115086 ], [ 139.325125, -35.148289 ], [ 139.315115, -35.185561 ], [ 139.458507, -35.27101 ], [ 139.362885, -35.376886 ] ] ] } },
{ "type": "Feature", "properties": { "dissolve": "675Lake Centerline", "scalerank": 8.0, "featurecla": "Lake Centerline", "name": "Macquarie", "rivernum": 675, "min_zoom": 7.0, "name_en": "Macquarie", "min_label": 8.0 }, "geometry": { "type": "MultiLineString", "coordinates": [ [ [ 149.120046, -32.655694 ], [ 149.24171, -32.809584 ], [ 149.245372, -32.911472 ] ] ] } },
{ "type": "Feature", "properties": { "dissolve": "675River", "scalerank": 8.0, "featurecla": "River", "name": "Macquarie", "rivernum": 675, "min_zoom": 7.0, "name_en": "Macquarie", "min_label": 8.0 }, "geometry": { "type": "MultiLineString", "coordinates": [ [ [ 149.120046, -32.655694 ], [ 148.872976, -32.522149 ], [ 148.834972, -32.448907 ], [ 148.796641, -32.458429 ], [ 148.697683, -32.385105 ], [ 148.645844, -32.388035 ], [ 148.609386, -32.279148 ], [ 148.54599, -32.218764 ], [ 148.432384, -32.179864 ], [ 148.379812, -32.22088 ], [ 148.265636, -32.229506 ], [ 148.244233, -31.991632 ], [ 148.020518, -31.871596 ], [ 147.980561, -31.797052 ], [ 147.922781, -31.787449 ], [ 147.85963, -31.694757 ], [ 147.799327, -31.663263 ], [ 147.635834, -31.231134 ], [ 147.483409, -31.008722 ], [ 147.527436, -30.663018 ], [ 147.610932, -30.509698 ], [ 147.530284, -30.386244 ], [ 147.520274, -30.310561 ], [ 147.566498, -30.241388 ], [ 147.527924, -30.187433 ], [ 147.411794, -30.126967 ] ], [ [ 149.718354, -33.637058 ], [ 149.601085, -33.565362 ], [ 149.629242, -33.507257 ], [ 149.601085, -33.499851 ], [ 149.577566, -33.414565 ], [ 149.474539, -33.393731 ], [ 149.402192, -33.333185 ], [ 149.382091, -33.290704 ], [ 149.41627, -33.267104 ], [ 149.40797, -33.236668 ], [ 149.50172, -33.202976 ], [ 149.503998, -33.164483 ], [ 149.282807, -33.064467 ], [ 149.237397, -33.000177 ], [ 149.284434, -32.947686 ], [ 149.244151, -32.909031 ] ] ] } },
{ "type": "Feature", "properties": { "dissolve": "745River", "scalerank": 8.0, "featurecla": "River", "name": "Roper", "rivernum": 745, "min_zoom": 7.0, "name_en": "Roper", "min_label": 8.0 }, "geometry": { "type": "MultiLineString", "coordinates": [ [ [ 132.750662, -14.470147 ], [ 132.647634, -14.593113 ], [ 132.663097, -14.630873 ], [ 132.773936, -14.699151 ], [ 132.8296, -14.699151 ], [ 133.09669, -14.915867 ], [ 133.261485, -14.956231 ], [ 133.365896, -14.94728 ], [ 133.470144, -14.819675 ], [ 133.524343, -14.844089 ], [ 133.766368, -14.826674 ], [ 134.003917, -14.851088 ], [ 134.046153, -14.826511 ], [ 134.036143, -14.765964 ], [ 134.087332, -14.699558 ], [ 134.271495, -14.61419 ], [ 134.361339, -14.632745 ], [ 134.402273, -14.685968 ], [ 134.557872, -14.715509 ], [ 134.597667, -14.778009 ], [ 134.727794, -14.726414 ], [ 135.056651, -14.812188 ], [ 135.114838, -14.757501 ], [ 135.14088, -14.783217 ], [ 135.1456, -14.737156 ], [ 135.187511, -14.758966 ], [ 135.261648, -14.723972 ], [ 135.282644, -14.677097 ], [ 135.313487, -14.692397 ], [ 135.293875, -14.738214 ], [ 135.326671, -14.747898 ], [ 135.342784, -14.70558 ], [ 135.368175, -14.722833 ] ] ] } },
{ "type": "Feature", "properties": { "dissolve": "746River", "scalerank": 8.0, "featurecla": "River", "name": "Burdekin", "rivernum": 746, "min_zoom": 7.0, "name_en": "Burdekin", "min_label": 8.0 }, "geometry": { "type": "MultiLineString", "coordinates": [ [ [ 145.548106, -19.188328 ], [ 145.613292, -19.122898 ], [ 145.71933, -19.112644 ], [ 145.825206, -19.305597 ], [ 145.853526, -19.476007 ], [ 145.893891, -19.503351 ], [ 145.897227, -19.701593 ], [ 145.983165, -19.725518 ], [ 146.020844, -19.80462 ], [ 146.099864, -19.821791 ], [ 146.106619, -19.85589 ], [ 146.237071, -19.883803 ], [ 146.328624, -19.972019 ], [ 146.397227, -19.995131 ], [ 146.430919, -19.97267 ], [ 146.445079, -20.113946 ], [ 146.513194, -20.132338 ], [ 146.538259, -20.096043 ], [ 146.651866, -20.204929 ], [ 146.706065, -20.192315 ], [ 146.863373, -20.262058 ], [ 146.857514, -20.36655 ], [ 146.968028, -20.399835 ], [ 146.959239, -20.455499 ], [ 147.034434, -20.619643 ], [ 147.076671, -20.616713 ], [ 147.086192, -20.644871 ], [ 147.158214, -20.644871 ], [ 147.281993, -20.544854 ], [ 147.292247, -20.465997 ], [ 147.353608, -20.397149 ], [ 147.319591, -20.325128 ], [ 147.300385, -20.054539 ], [ 147.237641, -19.911147 ], [ 147.264252, -19.746026 ], [ 147.433604, -19.613946 ], [ 147.593272, -19.677748 ] ] ] } },
{ "type": "Feature", "properties": { "dissolve": "76River", "scalerank": 3.0, "featurecla": "River", "name": "Weir", "rivernum": 76, "min_zoom": 3.0, "name_en": "Weir", "min_label": 4.0 }, "geometry": { "type": "MultiLineString", "coordinates": [ [ [ 151.863048, -28.739272 ], [ 151.712332, -28.780206 ], [ 151.634044, -28.893243 ], [ 151.560639, -28.938979 ], [ 151.519949, -29.061456 ], [ 151.375906, -29.17075 ], [ 151.315033, -29.099298 ], [ 151.28712, -28.920831 ], [ 151.160167, -28.846124 ], [ 151.061697, -28.828058 ], [ 151.045665, -28.734877 ], [ 150.793224, -28.635105 ], [ 150.469656, -28.650405 ] ] ] } },
{ "type": "Feature", "properties": { "dissolve": "784River", "scalerank": 8.0, "featurecla": "River", "name": "Victoria", "rivernum": 784, "min_zoom": 7.0, "name_en": "Victoria", "min_label": 8.0 }, "geometry": { "type": "MultiLineString", "coordinates": [ [ [ 130.148936, -17.820733 ], [ 130.317556, -17.798028 ], [ 130.46046, -17.948256 ], [ 130.605561, -17.937921 ], [ 130.672455, -17.843927 ], [ 130.675955, -17.684015 ], [ 130.750987, -17.536065 ], [ 131.04713, -17.240248 ], [ 131.098643, -17.080906 ], [ 131.227306, -16.928155 ], [ 131.236257, -16.820733 ], [ 131.196544, -16.694675 ], [ 131.057384, -16.539565 ], [ 131.052745, -16.462416 ], [ 131.15919, -16.253839 ], [ 131.116466, -16.064304 ], [ 131.074799, -16.017999 ], [ 131.076101, -15.83172 ], [ 131.112071, -15.798272 ], [ 131.085948, -15.738946 ], [ 131.138601, -15.613783 ], [ 131.116628, -15.576349 ], [ 130.995942, -15.540379 ], [ 130.876231, -15.553237 ], [ 130.80421, -15.528741 ], [ 130.776459, -15.486668 ], [ 130.729747, -15.504897 ], [ 130.75587, -15.532159 ], [ 130.691987, -15.610772 ], [ 130.619884, -15.601007 ], [ 130.582286, -15.627781 ], [ 130.523529, -15.578302 ], [ 130.47934, -15.622003 ], [ 130.434255, -15.613783 ], [ 130.276378, -15.365574 ], [ 130.115896, -15.435968 ], [ 130.026541, -15.409356 ], [ 129.943451, -15.446303 ], [ 129.858328, -15.405206 ], [ 129.789806, -15.195977 ], [ 129.730968, -15.188328 ] ] ] } },
{ "type": "Feature", "properties": { "dissolve": "785River", "scalerank": 8.0, "featurecla": "River", "name": "Mackenzie", "rivernum": 785, "min_zoom": 7.0, "name_en": "Mackenzie", "min_label": 8.0 }, "geometry": { "type": "MultiLineString", "coordinates": [ [ [ 148.853933, -25.338393 ], [ 148.758311, -25.180841 ], [ 148.735037, -25.053643 ], [ 148.655284, -24.951104 ], [ 148.714692, -24.809259 ], [ 148.730968, -24.660089 ], [ 148.639171, -24.53045 ], [ 148.592052, -24.386163 ], [ 148.618175, -24.314955 ], [ 148.586925, -24.217787 ], [ 148.607432, -24.173354 ], [ 148.486827, -23.921808 ], [ 148.511811, -23.786065 ], [ 148.491466, -23.714044 ], [ 148.545014, -23.637058 ], [ 148.515147, -23.56878 ], [ 148.635916, -23.515476 ], [ 148.708751, -23.361261 ], [ 148.864757, -23.368097 ], [ 148.853933, -23.282729 ], [ 148.984874, -23.193373 ], [ 148.969656, -23.107354 ], [ 149.107514, -23.046563 ], [ 149.196218, -23.042657 ], [ 149.343028, -22.875502 ], [ 149.409434, -22.912123 ], [ 149.502452, -23.117201 ], [ 149.493175, -23.184259 ], [ 149.546479, -23.2138 ], [ 149.508881, -23.360528 ], [ 149.577403, -23.385675 ], [ 149.61378, -23.490655 ], [ 149.673432, -23.532892 ] ] ] } },
{ "type": "Feature", "properties": { "dissolve": "786River", "scalerank": 8.0, "featurecla": "River", "name": "Tamar", "rivernum": 786, "min_zoom": 7.0, "name_en": "Tamar", "min_label": 8.0 }, "geometry": { "type": "MultiLineString", "coordinates": [ [ [ 147.691824, -42.177748 ], [ 147.604503, -42.166518 ], [ 147.470307, -42.059096 ], [ 147.436127, -41.921889 ], [ 147.141368, -41.722833 ], [ 147.117768, -41.686049 ], [ 147.141368, -41.592299 ], [ 147.064545, -41.46974 ], [ 147.07252, -41.434747 ], [ 147.120942, -41.445326 ], [ 147.113373, -41.397475 ], [ 146.927013, -41.214858 ], [ 146.949636, -41.161065 ] ] ] } },
{ "type": "Feature", "properties": { "dissolve": "787River", "scalerank": 8.0, "featurecla": "River", "name": "Blackwood", "rivernum": 787, "min_zoom": 7.0, "name_en": "Blackwood", "min_label": 8.0 }, "geometry": { "type": "MultiLineString", "coordinates": [ [ [ 116.743175, -33.218683 ], [ 116.828624, -33.33058 ], [ 116.804617, -33.602227 ], [ 116.747569, -33.605645 ], [ 116.701589, -33.680678 ], [ 116.570811, -33.654636 ], [ 116.571218, -33.712254 ], [ 116.543386, -33.74627 ], [ 116.523448, -33.732599 ], [ 116.530854, -33.760593 ], [ 116.372569, -33.84588 ], [ 116.393077, -33.890964 ], [ 116.365733, -33.952325 ], [ 116.324799, -33.931166 ], [ 116.2081, -34.000828 ], [ 116.066905, -33.971531 ], [ 116.024994, -33.913995 ], [ 115.882823, -33.830743 ], [ 115.769216, -33.938653 ], [ 115.660818, -33.974461 ], [ 115.598643, -34.04103 ], [ 115.612315, -34.075209 ], [ 115.514903, -34.104669 ], [ 115.509288, -34.069024 ], [ 115.220632, -34.075209 ], [ 115.189545, -34.098077 ], [ 115.208263, -34.228367 ], [ 115.164968, -34.310235 ] ] ] } },
{ "type": "Feature", "properties": { "dissolve": "82River", "scalerank": 3.0, "featurecla": "River", "name": "Barwon", "rivernum": 82, "min_zoom": 3.0, "name_en": "Barwon", "min_label": 4.0 }, "geometry": { "type": "MultiLineString", "coordinates": [ [ [ 150.469656, -28.650405 ], [ 150.297862, -28.535007 ], [ 150.019542, -28.600112 ], [ 149.704112, -28.627455 ], [ 149.620616, -28.607843 ], [ 149.5949, -28.565362 ], [ 149.48406, -28.583917 ], [ 149.416026, -28.680841 ], [ 149.093272, -28.848484 ], [ 149.046316, -28.954115 ], [ 148.834076, -29.081964 ], [ 148.809093, -29.178562 ], [ 148.70989, -29.332533 ], [ 148.714692, -29.432061 ], [ 148.682384, -29.506362 ], [ 148.5171, -29.592299 ], [ 148.439871, -29.721612 ], [ 148.166108, -29.975274 ], [ 147.414561, -30.124526 ] ] ] } },
{ "type": "Feature", "properties": { "dissolve": "86River", "scalerank": 3.0, "featurecla": "River", "name": "Darling", "rivernum": 86, "min_zoom": 3.0, "name_en": "Darling", "min_label": 4.0 }, "geometry": { "type": "MultiLineString", "coordinates": [ [ [ 147.414561, -30.124526 ], [ 147.210867, -30.121433 ], [ 147.172374, -30.063816 ], [ 147.04713, -30.05047 ], [ 146.962901, -29.985365 ], [ 146.675222, -29.915948 ], [ 146.596446, -29.961928 ], [ 146.459239, -29.929701 ], [ 146.268484, -29.974786 ], [ 146.190033, -29.945652 ], [ 146.042003, -29.966485 ], [ 146.017589, -30.042494 ], [ 145.846202, -30.105971 ], [ 145.777599, -30.197117 ], [ 145.583344, -30.284356 ], [ 145.577403, -30.363295 ], [ 145.510265, -30.409519 ], [ 145.338308, -30.409519 ], [ 145.249929, -30.481948 ], [ 145.12672, -30.477716 ], [ 145.119233, -30.549493 ], [ 145.058442, -30.608087 ], [ 144.855724, -30.680597 ], [ 144.686046, -30.890476 ], [ 144.511729, -30.896661 ], [ 144.430268, -30.930597 ], [ 144.360037, -31.00392 ], [ 144.352061, -31.066827 ], [ 144.249766, -31.072605 ], [ 144.22169, -31.122003 ], [ 144.180105, -31.115167 ], [ 144.091889, -31.197117 ], [ 144.024994, -31.208917 ], [ 144.0442, -31.300714 ], [ 144.014334, -31.374933 ], [ 143.927745, -31.423191 ], [ 143.572032, -31.486017 ], [ 143.476003, -31.597589 ], [ 143.430593, -31.560235 ], [ 143.389252, -31.568048 ], [ 143.324474, -31.732843 ], [ 143.218028, -31.7492 ], [ 143.135509, -31.869317 ], [ 143.008718, -31.914483 ], [ 142.971609, -32.105157 ], [ 142.858653, -32.111505 ], [ 142.704275, -32.204278 ], [ 142.677257, -32.270522 ], [ 142.526866, -32.323907 ], [ 142.40089, -32.417901 ], [ 142.372081, -32.890313 ], [ 142.399343, -33.000177 ], [ 142.321544, -33.083022 ], [ 142.301524, -33.190932 ], [ 142.385671, -33.225518 ], [ 142.566905, -33.382826 ], [ 142.577403, -33.452081 ], [ 142.406179, -33.691746 ], [ 142.182221, -33.801446 ], [ 142.030528, -33.818292 ], [ 141.993175, -33.861342 ], [ 141.99171, -33.948419 ], [ 141.914643, -34.012384 ], [ 141.92628, -34.116876 ] ] ] } },
{ "type": "Feature", "properties": { "dissolve": "896River", "scalerank": 8.0, "featurecla": "River", "name": "Derwent", "rivernum": 896, "min_zoom": 7.0, "name_en": "Derwent", "min_label": 8.0 }, "geometry": { "type": "MultiLineString", "coordinates": [ [ [ 146.291596, -42.264011 ], [ 146.494151, -42.40366 ], [ 146.619884, -42.440444 ], [ 146.972992, -42.736993 ], [ 147.122081, -42.787612 ], [ 147.224539, -42.74212 ], [ 147.277924, -42.77866 ] ] ] } },
{ "type": "Feature", "properties": { "dissolve": "962River", "scalerank": 8.0, "featurecla": "River", "name": "Fitzroy", "rivernum": 962, "min_zoom": 7.0, "name_en": "Fitzroy", "min_label": 8.0 }, "geometry": { "type": "MultiLineString", "coordinates": [ [ [ 149.673438, -23.532892 ], [ 149.775923, -23.622055 ], [ 149.846171, -23.580177 ], [ 149.916419, -23.608546 ], [ 149.948841, -23.561264 ], [ 150.000175, -23.551807 ], [ 149.956946, -23.508578 ], [ 150.017737, -23.476156 ], [ 149.960999, -23.416716 ], [ 149.915068, -23.415365 ], [ 149.8894, -23.338363 ], [ 149.940735, -23.245149 ], [ 149.876069, -23.12127 ], [ 149.942475, -23.075128 ], [ 150.009288, -23.091729 ], [ 150.046804, -23.042494 ], [ 150.163503, -23.145522 ], [ 150.235281, -23.117608 ], [ 150.375662, -23.156671 ], [ 150.400645, -23.190932 ], [ 150.361013, -23.25978 ], [ 150.420095, -23.248549 ], [ 150.465017, -23.330499 ], [ 150.520518, -23.382013 ], [ 150.575043, -23.385186 ], [ 150.670665, -23.488783 ], [ 150.821381, -23.50921 ] ] ] } },
{ "type": "Feature", "properties": { "dissolve": "97Lake Centerline", "scalerank": 4.0, "featurecla": "Lake Centerline", "name": "Murray", "rivernum": 97, "min_zoom": 4.0, "name_en": "Murray", "min_label": 5.0 }, "geometry": { "type": "MultiLineString", "coordinates": [ [ [ 146.028087, -36.014581 ], [ 146.141775, -36.018569 ], [ 146.215912, -36.055841 ] ], [ [ 147.043224, -36.108087 ], [ 147.118907, -36.031101 ], [ 147.271658, -36.049005 ] ] ] } },
{ "type": "Feature", "properties": { "dissolve": "97River", "scalerank": 4.0, "featurecla": "River", "name": "Murray", "rivernum": 97, "min_zoom": 4.0, "name_en": "Murray", "min_label": 5.0 }, "geometry": { "type": "MultiLineString", "coordinates": [ [ [ 146.028087, -36.014581 ], [ 145.983165, -36.014337 ], [ 145.939464, -35.966811 ], [ 145.744233, -35.964858 ], [ 145.536225, -35.829115 ], [ 145.333751, -35.87599 ], [ 145.120535, -35.851251 ], [ 144.970876, -35.894871 ], [ 144.933604, -36.005548 ], [ 144.975108, -36.097507 ], [ 144.88974, -36.076349 ], [ 144.810802, -36.131687 ], [ 144.740489, -36.134942 ], [ 144.45224, -35.947198 ], [ 144.353038, -35.77752 ], [ 144.180105, -35.679132 ], [ 144.099701, -35.586765 ], [ 143.585704, -35.35296 ], [ 143.581065, -35.249444 ], [ 143.417979, -35.188002 ], [ 143.363699, -35.107273 ], [ 143.331065, -34.962823 ], [ 143.355154, -34.801446 ], [ 143.282481, -34.792494 ], [ 143.268565, -34.75392 ], [ 143.142345, -34.69907 ], [ 142.995372, -34.668796 ], [ 142.981049, -34.690606 ], [ 142.933686, -34.658136 ], [ 142.880056, -34.679376 ], [ 142.85491, -34.620782 ], [ 142.789806, -34.582371 ], [ 142.725841, -34.603204 ], [ 142.694347, -34.730971 ], [ 142.630463, -34.736342 ], [ 142.642507, -34.787612 ], [ 142.547781, -34.770929 ], [ 142.467459, -34.603448 ], [ 142.385509, -34.53338 ], [ 142.396251, -34.338067 ], [ 142.304779, -34.317234 ], [ 142.234874, -34.191908 ], [ 142.149832, -34.158624 ], [ 142.094005, -34.170831 ], [ 142.050955, -34.116062 ], [ 141.92628, -34.116876 ] ], [ [ 147.044526, -36.107599 ], [ 146.846609, -36.097507 ], [ 146.62379, -35.993829 ], [ 146.503917, -35.973972 ], [ 146.431651, -35.983901 ], [ 146.369151, -36.052748 ], [ 146.215912, -36.055841 ] ], [ [ 148.004975, -36.967136 ], [ 148.216726, -36.628106 ], [ 148.149994, -36.562514 ], [ 148.130789, -36.458917 ], [ 148.067312, -36.409682 ], [ 148.045095, -36.17254 ], [ 147.99114, -36.11419 ], [ 147.996593, -36.059259 ], [ 147.713471, -35.939386 ], [ 147.55657, -35.996433 ], [ 147.501964, -35.948744 ], [ 147.408295, -35.959649 ], [ 147.339936, -36.076349 ], [ 147.271658, -36.049005 ] ] ] } }
]
}
