{
"type": "FeatureCollection",
"name": "australia_land",
"features": [
{ "type": "Feature", "properties": { }, "geometry": { "type": "MultiPolygon", "coordinates": [ [ [ [ 112.982421875, -25.520214080810547 ], [ 113.131546020507812, -25.882617950439453 ], [ 113.183006286621094, -26.053125381469727 ], [ 113.156448364257812, -26.094532012939453 ], [ 112.964256286621094, -25.783105850219727 ], [ 112.908203125, -25.56982421875 ], [ 112.982421875, -25.520214080810547 ] ] ], [ [ [ 143.110244750976562, -12.303516387939453 ], [ 143.40155029296875, -12.639941215515137 ], [ 143.586624145507812, -13.443652153015137 ], [ 143.548431396484375, -13.741015434265137 ], [ 143.75634765625, -14.348827362060547 ], [ 143.961807250976562, -14.462891578674316 ], [ 144.209869384765625, -14.301953315734863 ], [ 144.473052978515625, -14.231836318969727 ], [ 144.648056030273438, -14.49247932434082 ], [ 145.287704467773438, -14.943164825439453 ], [ 145.251663208007812, -15.097460746765137 ], [ 145.271575927734375, -15.47666072845459 ], [ 145.4580078125, -16.056446075439453 ], [ 145.42608642578125, -16.406152725219727 ], [ 145.754791259765625, -16.879491806030273 ], [ 145.912109375, -16.912500381469727 ], [ 145.901947021484375, -17.070215225219727 ], [ 146.125869750976562, -17.63525390625 ], [ 146.0322265625, -18.272851943969727 ], [ 146.223052978515625, -18.509864807128906 ], [ 146.33319091796875, -18.5537109375 ], [ 146.296875, -18.841211318969727 ], [ 146.383392333984375, -18.97705078125 ], [ 146.691986083984375, -19.187402725219727 ], [ 147.002639770507812, -19.25605583190918 ], [ 147.138778686523438, -19.393163681030273 ], [ 147.418548583984375, -19.378124237060547 ], [ 147.742385864257812, -19.770116806030273 ], [ 147.853225708007812, -19.794727325439453 ], [ 147.915634155273438, -19.869239807128906 ], [ 148.0810546875, -19.898632049560547 ], [ 148.366897583007812, -20.087499618530273 ], [ 148.600494384765625, -20.145214080810547 ], [ 148.759368896484375, -20.28955078125 ], [ 148.884765625, -20.480859756469727 ], [ 148.72998046875, -20.4677734375 ], [ 148.683700561523438, -20.580175399780273 ], [ 148.789459228515625, -20.735645294189453 ], [ 149.204879760742188, -21.125097274780273 ], [ 149.329299926757812, -21.47607421875 ], [ 149.4541015625, -21.578710556030273 ], [ 149.524032592773438, -22.023632049560547 ], [ 149.703903198242188, -22.440526962280273 ], [ 149.822463989257812, -22.389842987060547 ], [ 149.974411010742188, -22.550683975219727 ], [ 150.005569458007812, -22.521581649780273 ], [ 149.94189453125, -22.30810546875 ], [ 150.020614624023438, -22.168359756469727 ], [ 150.076171875, -22.164451599121094 ], [ 150.23486328125, -22.372949600219727 ], [ 150.541305541992188, -22.55908203125 ], [ 150.57958984375, -22.555761337280273 ], [ 150.568557739257812, -22.38398551940918 ], [ 150.622848510742188, -22.367284774780273 ], [ 150.763870239257812, -22.576171875 ], [ 150.783004760742188, -23.17656135559082 ], [ 150.843170166015625, -23.4580078125 ], [ 151.15380859375, -23.784080505371094 ], [ 151.500778198242188, -24.01240348815918 ], [ 151.69091796875, -24.038379669189453 ], [ 151.831634521484375, -24.122949600219727 ], [ 152.1298828125, -24.597558975219727 ], [ 152.456344604492188, -24.80244255065918 ], [ 152.502044677734375, -24.963964462280273 ], [ 152.654296875, -25.201953887939453 ], [ 152.789154052734375, -25.274120330810547 ], [ 152.913482666015625, -25.43212890625 ], [ 152.920501708984375, -25.688573837280273 ], [ 153.028213500976562, -25.87031364440918 ], [ 153.164947509765625, -25.96415901184082 ], [ 153.084182739257812, -26.303808212280273 ], [ 153.162109375, -26.982715606689453 ], [ 153.116806030273438, -27.194433212280273 ], [ 153.3857421875, -27.7685546875 ], [ 153.454879760742188, -28.04833984375 ], [ 153.57568359375, -28.24052619934082 ], [ 153.569137573242188, -28.53339958190918 ], [ 153.616897583007812, -28.673046112060547 ], [ 153.604583740234375, -28.8544921875 ], [ 153.348052978515625, -29.290430068969727 ], [ 153.272369384765625, -29.892480850219727 ], [ 153.030563354492188, -30.563379287719727 ], [ 153.0478515625, -30.907129287719727 ], [ 152.943939208984375, -31.43486213684082 ], [ 152.785842895507812, -31.786327362060547 ], [ 152.559280395507812, -32.045703887939453 ], [ 152.470413208007812, -32.439060211181641 ], [ 152.215728759765625, -32.678123474121094 ], [ 152.136520385742188, -32.678123474121094 ], [ 152.188095092773438, -32.7216796875 ], [ 152.16424560546875, -32.757423400878906 ], [ 151.812896728515625, -32.901073455810547 ], [ 151.483795166015625, -33.347457885742188 ], [ 151.432022094726562, -33.521579742431641 ], [ 151.292098999023438, -33.580955505371094 ], [ 151.32275390625, -33.699317932128906 ], [ 151.2802734375, -33.926658630371094 ], [ 151.24462890625, -33.985057830810547 ], [ 151.124801635742188, -34.005271911621094 ], [ 151.231552124023438, -34.029685974121094 ], [ 150.960342407226562, -34.297069549560547 ], [ 150.87127685546875, -34.499122619628906 ], [ 150.781051635742188, -34.892189025878906 ], [ 150.804595947265625, -35.012893676757812 ], [ 150.697357177734375, -35.041896820068359 ], [ 150.690338134765625, -35.177734375 ], [ 150.567474365234375, -35.214256286621094 ], [ 150.1953125, -35.833595275878906 ], [ 150.062789916992188, -36.550392150878906 ], [ 149.96026611328125, -36.845508575439453 ], [ 149.986328125, -37.258399963378906 ], [ 149.932723999023438, -37.528514862060547 ], [ 149.80938720703125, -37.5478515625 ], [ 149.480865478515625, -37.771190643310547 ], [ 148.26251220703125, -37.830665588378906 ], [ 147.876754760742188, -37.934181213378906 ], [ 147.395599365234375, -38.219139099121094 ], [ 146.856842041015625, -38.663478851318359 ], [ 146.217483520507812, -38.727443695068359 ], [ 146.216201782226562, -38.78271484375 ], [ 146.336624145507812, -38.894237518310547 ], [ 146.42694091796875, -38.819629669189453 ], [ 146.466598510742188, -38.84033203125 ], [ 146.483795166015625, -39.065036773681641 ], [ 146.399993896484375, -39.1455078125 ], [ 146.340042114257812, -39.123828887939453 ], [ 146.158401489257812, -38.86572265625 ], [ 146.069915771484375, -38.834083557128906 ], [ 145.935348510742188, -38.901760101318359 ], [ 145.79083251953125, -38.6669921875 ], [ 145.606338500976562, -38.656833648681641 ], [ 145.397262573242188, -38.535350799560547 ], [ 145.462799072265625, -38.416309356689453 ], [ 145.542190551757812, -38.393848419189453 ], [ 145.47576904296875, -38.243747711181641 ], [ 145.292770385742188, -38.237598419189453 ], [ 145.19122314453125, -38.383594512939453 ], [ 144.959564208984375, -38.500782012939453 ], [ 144.7177734375, -38.34033203125 ], [ 144.911422729492188, -38.344043731689453 ], [ 145.066986083984375, -38.204883575439453 ], [ 145.119918823242188, -38.09130859375 ], [ 144.89129638671875, -37.899803161621094 ], [ 144.3955078125, -38.136913299560547 ], [ 144.589447021484375, -38.157615661621094 ], [ 144.665237426757812, -38.2099609375 ], [ 144.1015625, -38.462303161621094 ], [ 143.811721801757812, -38.698825836181641 ], [ 143.538970947265625, -38.820899963378906 ], [ 143.226470947265625, -38.7431640625 ], [ 142.455856323242188, -38.386329650878906 ], [ 142.187698364257812, -38.3994140625 ], [ 141.924713134765625, -38.283786773681641 ], [ 141.725006103515625, -38.271389007568359 ], [ 141.593948364257812, -38.387794494628906 ], [ 141.424209594726562, -38.363475799560547 ], [ 141.2138671875, -38.171974182128906 ], [ 141.010940551757812, -38.076953887939453 ], [ 140.627243041992188, -38.028415679931641 ], [ 140.390426635742188, -37.896678924560547 ], [ 140.21209716796875, -37.642185211181641 ], [ 139.784271240234375, -37.245800018310547 ], [ 139.73846435546875, -37.0595703125 ], [ 139.857330322265625, -36.662109375 ], [ 139.72900390625, -36.371387481689453 ], [ 139.465927124023438, -36.010353088378906 ], [ 139.037689208984375, -35.689258575439453 ], [ 138.968948364257812, -35.580760955810547 ], [ 139.06689453125, -35.598438262939453 ], [ 139.178024291992188, -35.523044586181641 ], [ 139.289459228515625, -35.611328125 ], [ 139.325088500976562, -35.426662445068359 ], [ 139.282516479492188, -35.375389099121094 ], [ 139.192764282226562, -35.347267150878906 ], [ 138.87530517578125, -35.536815643310547 ], [ 138.521881103515625, -35.642383575439453 ], [ 138.184371948242188, -35.612693786621094 ], [ 138.399810791015625, -35.325778961181641 ], [ 138.511123657226562, -35.0244140625 ], [ 138.489944458007812, -34.763572692871094 ], [ 138.089248657226562, -34.169822692871094 ], [ 137.919235229492188, -34.4560546875 ], [ 137.874114990234375, -34.727439880371094 ], [ 137.691696166992188, -35.142971038818359 ], [ 137.459564208984375, -35.13134765625 ], [ 137.144439697265625, -35.236427307128906 ], [ 136.883590698242188, -35.23974609375 ], [ 137.014266967773438, -34.915821075439453 ], [ 137.391021728515625, -34.913280487060547 ], [ 137.492965698242188, -34.597751617431641 ], [ 137.458984375, -34.37890625 ], [ 137.493850708007812, -34.1611328125 ], [ 137.650390625, -33.859081268310547 ], [ 137.931838989257812, -33.5791015625 ], [ 137.852340698242188, -33.200782775878906 ], [ 137.992584228515625, -33.09423828125 ], [ 137.913192749023438, -32.770706176757812 ], [ 137.783203125, -32.578125 ], [ 137.790908813476562, -32.8232421875 ], [ 137.442291259765625, -33.193553924560547 ], [ 137.2373046875, -33.629489898681641 ], [ 136.4306640625, -34.029979705810547 ], [ 135.891006469726562, -34.660938262939453 ], [ 135.99853515625, -34.943748474121094 ], [ 135.9697265625, -34.981834411621094 ], [ 135.792388916015625, -34.86328125 ], [ 135.647552490234375, -34.939647674560547 ], [ 135.32421875, -34.642673492431641 ], [ 135.230667114257812, -34.579784393310547 ], [ 135.123046875, -34.585742950439453 ], [ 135.216796875, -34.4873046875 ], [ 135.378707885742188, -34.59765625 ], [ 135.449996948242188, -34.5810546875 ], [ 135.218948364257812, -33.959766387939453 ], [ 134.888763427734375, -33.626365661621094 ], [ 134.8466796875, -33.444629669189453 ], [ 134.719039916992188, -33.255176544189453 ], [ 134.607711791992188, -33.190135955810547 ], [ 134.30126953125, -33.1650390625 ], [ 134.173538208007812, -32.979099273681641 ], [ 134.10040283203125, -32.748634338378906 ], [ 134.227157592773438, -32.730567932128906 ], [ 134.23419189453125, -32.548534393310547 ], [ 133.93017578125, -32.411720275878906 ], [ 133.665328979492188, -32.207225799560547 ], [ 133.21209716796875, -32.183788299560547 ], [ 132.757415771484375, -31.956249237060547 ], [ 132.214645385742188, -32.007125854492188 ], [ 131.72119140625, -31.6962890625 ], [ 131.393173217773438, -31.548534393310547 ], [ 131.143646240234375, -31.495702743530273 ], [ 130.78302001953125, -31.604001998901367 ], [ 130.129791259765625, -31.579103469848633 ], [ 128.946182250976562, -31.70263671875 ], [ 128.067672729492188, -32.066505432128906 ], [ 127.31982421875, -32.264060974121094 ], [ 126.779296875, -32.310935974121094 ], [ 126.136520385742188, -32.2568359375 ], [ 125.917190551757812, -32.296974182128906 ], [ 124.7587890625, -32.882717132568359 ], [ 124.243751525878906, -33.015235900878906 ], [ 124.126083374023438, -33.12939453125 ], [ 123.868362426757812, -33.596385955810547 ], [ 123.650382995605469, -33.836326599121094 ], [ 123.506843566894531, -33.916210174560547 ], [ 123.365425109863281, -33.905368804931641 ], [ 123.207611083984375, -33.98828125 ], [ 123.067581176757812, -33.900585174560547 ], [ 122.777542114257812, -33.890823364257812 ], [ 122.150978088378906, -33.991794586181641 ], [ 122.061134338378906, -33.874416351318359 ], [ 121.405082702636719, -33.826759338378906 ], [ 120.814544677734375, -33.871292114257812 ], [ 120.418365478515625, -33.963085174560547 ], [ 120.209373474121094, -33.935451507568359 ], [ 119.854095458984375, -33.974704742431641 ], [ 119.635162353515625, -34.101169586181641 ], [ 119.450584411621094, -34.368263244628906 ], [ 119.247657775878906, -34.456447601318359 ], [ 118.895317077636719, -34.479885101318359 ], [ 118.135551452636719, -34.986618041992188 ], [ 117.863082885742188, -35.054981231689453 ], [ 117.581939697265625, -35.097751617431641 ], [ 116.517196655273438, -34.987888336181641 ], [ 115.986717224121094, -34.795017242431641 ], [ 115.726272583007812, -34.526073455810547 ], [ 115.565040588378906, -34.42578125 ], [ 115.277641296386719, -34.303909301757812 ], [ 115.127937316894531, -34.341796875 ], [ 115.0087890625, -34.255859375 ], [ 114.973434448242188, -34.051170349121094 ], [ 114.993843078613281, -33.515331268310547 ], [ 115.181648254394531, -33.643455505371094 ], [ 115.358795166015625, -33.639942169189453 ], [ 115.515327453613281, -33.531349182128906 ], [ 115.683006286621094, -33.19287109375 ], [ 115.618560791015625, -32.6669921875 ], [ 115.707916259765625, -32.567966461181641 ], [ 115.725387573242188, -32.401073455810547 ], [ 115.738090515136719, -31.887889862060547 ], [ 115.698432922363281, -31.69453239440918 ], [ 115.176849365234375, -30.808008193969727 ], [ 115.077926635742188, -30.560447692871094 ], [ 114.968841552734375, -30.042285919189453 ], [ 114.958984375, -29.43359375 ], [ 114.856826782226562, -29.142969131469727 ], [ 114.62841796875, -28.871776580810547 ], [ 114.537399291992188, -28.542869567871094 ], [ 114.165138244628906, -28.080663681030273 ], [ 114.098442077636719, -27.544239044189453 ], [ 114.028121948242188, -27.347267150878906 ], [ 113.709373474121094, -26.847753524780273 ], [ 113.184768676757812, -26.182228088378906 ], [ 113.3232421875, -26.243846893310547 ], [ 113.356056213378906, -26.080469131469727 ], [ 113.581642150878906, -26.55810546875 ], [ 113.733695983886719, -26.595117568969727 ], [ 113.83642578125, -26.500585556030273 ], [ 113.852836608886719, -26.332130432128906 ], [ 113.589065551757812, -26.0986328125 ], [ 113.395309448242188, -25.713281631469727 ], [ 113.451370239257812, -25.59912109375 ], [ 113.539451599121094, -25.625194549560547 ], [ 113.713088989257812, -25.830760955810547 ], [ 113.68359375, -26.051660537719727 ], [ 113.723731994628906, -26.129785537719727 ], [ 113.765823364257812, -26.159767150878906 ], [ 113.853904724121094, -26.01445198059082 ], [ 113.991989135742188, -26.32148551940918 ], [ 114.09033203125, -26.393651962280273 ], [ 114.215721130371094, -26.289453506469727 ], [ 114.214256286621094, -25.8515625 ], [ 113.670799255371094, -24.97705078125 ], [ 113.417671203613281, -24.435644149780273 ], [ 113.421287536621094, -24.13232421875 ], [ 113.489845275878906, -23.86962890625 ], [ 113.757034301757812, -23.418163299560547 ], [ 113.795120239257812, -22.91455078125 ], [ 113.682807922363281, -22.637792587280273 ], [ 113.958396911621094, -21.939159393310547 ], [ 114.022850036621094, -21.881444931030273 ], [ 114.123924255371094, -21.82861328125 ], [ 114.0927734375, -22.18134880065918 ], [ 114.163864135742188, -22.323339462280273 ], [ 114.1416015625, -22.48310661315918 ], [ 114.303512573242188, -22.425390243530273 ], [ 114.377731323242188, -22.34150505065918 ], [ 114.709274291992188, -21.82343864440918 ], [ 115.456153869628906, -21.49169921875 ], [ 116.010940551757812, -21.030370712280273 ], [ 116.706733703613281, -20.65380859375 ], [ 117.139053344726562, -20.640918731689453 ], [ 117.40625, -20.72119140625 ], [ 117.683883666992188, -20.642772674560547 ], [ 118.199226379394531, -20.375194549560547 ], [ 118.751457214355469, -20.261913299560547 ], [ 119.104499816894531, -19.995311737060547 ], [ 119.585945129394531, -20.038280487060547 ], [ 119.767776489257812, -19.958398818969727 ], [ 120.433692932128906, -19.841991424560547 ], [ 120.997947692871094, -19.604394912719727 ], [ 121.337692260742188, -19.319923400878906 ], [ 121.833786010742188, -18.47705078125 ], [ 122.006248474121094, -18.393651962280273 ], [ 122.345405578613281, -18.111913681030273 ], [ 122.360939025878906, -18.036914825439453 ], [ 122.237396240234375, -17.96855354309082 ], [ 122.147453308105469, -17.549022674560547 ], [ 122.160255432128906, -17.31367301940918 ], [ 122.260932922363281, -17.1357421875 ], [ 122.720413208007812, -16.787694931030273 ], [ 122.916793823242188, -16.4326171875 ], [ 122.970695495605469, -16.43681526184082 ], [ 123.142097473144531, -16.863086700439453 ], [ 123.563079833984375, -17.520898818969727 ], [ 123.593559265136719, -17.030370712280273 ], [ 123.664054870605469, -17.023242950439453 ], [ 123.8310546875, -17.120800018310547 ], [ 123.874412536621094, -16.918651580810547 ], [ 123.856338500976562, -16.86474609375 ], [ 123.778121948242188, -16.867773056030273 ], [ 123.490432739257812, -16.49072265625 ], [ 123.6259765625, -16.416309356689453 ], [ 123.607025146484375, -16.224023818969727 ], [ 123.6474609375, -16.17988395690918 ], [ 123.728904724121094, -16.192480087280273 ], [ 123.859184265136719, -16.38232421875 ], [ 124.04443359375, -16.26494026184082 ], [ 124.300384521484375, -16.388280868530273 ], [ 124.77197265625, -16.40263557434082 ], [ 124.669242858886719, -16.338768005371094 ], [ 124.404884338378906, -16.298927307128906 ], [ 124.416404724121094, -16.133495330810547 ], [ 124.576858520507812, -16.113670349121094 ], [ 124.648536682128906, -15.870214462280273 ], [ 124.648345947265625, -15.805469512939453 ], [ 124.504295349121094, -15.972460746765137 ], [ 124.381637573242188, -15.75820255279541 ], [ 124.439544677734375, -15.493555068969727 ], [ 124.561630249023438, -15.496289253234863 ], [ 124.690925598144531, -15.359667778015137 ], [ 124.692573547363281, -15.273633003234863 ], [ 124.972068786621094, -15.404295921325684 ], [ 125.016410827636719, -15.466504096984863 ], [ 125.06298828125, -15.442285537719727 ], [ 125.072952270507812, -15.30673885345459 ], [ 124.909172058105469, -15.31005859375 ], [ 124.839073181152344, -15.160741806030273 ], [ 125.023330688476562, -15.071874618530273 ], [ 125.038185119628906, -15.004101753234863 ], [ 125.355667114257812, -15.119824409484863 ], [ 125.3837890625, -15.015624046325684 ], [ 125.243263244628906, -14.944530487060547 ], [ 125.1787109375, -14.714746475219727 ], [ 125.284576416015625, -14.58408260345459 ], [ 125.579788208007812, -14.483202934265137 ], [ 125.627738952636719, -14.256641387939453 ], [ 125.70458984375, -14.29140567779541 ], [ 125.661613464355469, -14.529492378234863 ], [ 125.738479614257812, -14.4443359375 ], [ 125.819526672363281, -14.469141006469727 ], [ 125.890617370605469, -14.617969512939453 ], [ 125.946090698242188, -14.520410537719727 ], [ 126.020706176757812, -14.49453067779541 ], [ 126.016609191894531, -14.371288299560547 ], [ 126.111328125, -14.114062309265137 ], [ 126.053901672363281, -13.977246284484863 ], [ 126.119049072265625, -13.957715034484863 ], [ 126.184272766113281, -14.002050399780273 ], [ 126.258491516113281, -14.16357421875 ], [ 126.403129577636719, -14.018945693969727 ], [ 126.569732666015625, -14.160937309265137 ], [ 126.780662536621094, -13.95517635345459 ], [ 126.775588989257812, -13.78847599029541 ], [ 126.903221130371094, -13.744141578674316 ], [ 127.457611083984375, -14.031445503234863 ], [ 127.672843933105469, -14.195116996765137 ], [ 127.887603759765625, -14.485156059265137 ], [ 128.199417114257812, -14.751757621765137 ], [ 128.080474853515625, -15.08798885345459 ], [ 128.069427490234375, -15.329297065734863 ], [ 128.155471801757812, -15.2255859375 ], [ 128.254684448242188, -15.29853630065918 ], [ 128.175003051757812, -15.043164253234863 ], [ 128.409866333007812, -14.828906059265137 ], [ 128.575790405273438, -14.77451229095459 ], [ 129.058197021484375, -14.88437557220459 ], [ 129.165130615234375, -14.987598419189453 ], [ 129.2158203125, -15.160253524780273 ], [ 129.267578125, -14.871485710144043 ], [ 129.458984375, -14.933202743530273 ], [ 129.634765625, -15.139745712280273 ], [ 129.637115478515625, -14.85097599029541 ], [ 129.848724365234375, -14.828906059265137 ], [ 129.604690551757812, -14.64707088470459 ], [ 129.69793701171875, -14.557421684265137 ], [ 129.60791015625, -14.55966854095459 ], [ 129.378707885742188, -14.392480850219727 ], [ 129.45916748046875, -14.213476181030273 ], [ 129.709869384765625, -13.97998046875 ], [ 129.8388671875, -13.572949409484863 ], [ 130.135940551757812, -13.44834041595459 ], [ 130.259765625, -13.30224609375 ], [ 130.134963989257812, -13.1455078125 ], [ 130.168167114257812, -12.95742130279541 ], [ 130.317977905273438, -12.882909774780273 ], [ 130.39990234375, -12.687891006469727 ], [ 130.617477416992188, -12.64687442779541 ], [ 130.622650146484375, -12.43105411529541 ], [ 130.736129760742188, -12.427734375 ], [ 130.867385864257812, -12.557812690734863 ], [ 130.873825073242188, -12.3671875 ], [ 131.0234375, -12.342870712280273 ], [ 131.01953125, -12.2138671875 ], [ 131.219924926757812, -12.177928924560547 ], [ 131.291610717773438, -12.06787109375 ], [ 131.342086791992188, -12.210058212280273 ], [ 131.438278198242188, -12.276952743530273 ], [ 131.887985229492188, -12.23193359375 ], [ 132.064056396484375, -12.28076171875 ], [ 132.253219604492188, -12.18603515625 ], [ 132.411026000976562, -12.295117378234863 ], [ 132.441604614257812, -12.176366806030273 ], [ 132.510543823242188, -12.134862899780273 ], [ 132.712783813476562, -12.12343692779541 ], [ 132.630477905273438, -12.03515625 ], [ 132.674224853515625, -11.649023056030273 ], [ 132.475189208984375, -11.491503715515137 ], [ 132.133590698242188, -11.500683784484863 ], [ 131.822463989257812, -11.302441596984863 ], [ 131.811813354492188, -11.27138614654541 ], [ 131.961517333984375, -11.180859565734863 ], [ 132.155471801757812, -11.31113338470459 ], [ 132.2626953125, -11.204004287719727 ], [ 132.333984375, -11.22353458404541 ], [ 132.682815551757812, -11.505566596984863 ], [ 132.85711669921875, -11.39111328125 ], [ 132.961044311523438, -11.40732479095459 ], [ 133.185256958007812, -11.70566463470459 ], [ 133.356155395507812, -11.728222846984863 ], [ 133.533203125, -11.816210746765137 ], [ 133.904205322265625, -11.83203125 ], [ 134.417388916015625, -12.052734375 ], [ 134.5380859375, -12.060840606689453 ], [ 134.730270385742188, -11.984375 ], [ 135.029678344726562, -12.193750381469727 ], [ 135.217971801757812, -12.2216796875 ], [ 135.922454833984375, -11.825780868530273 ], [ 135.833984375, -11.95068359375 ], [ 135.889450073242188, -11.992773056030273 ], [ 135.702545166015625, -12.151562690734863 ], [ 135.704391479492188, -12.209863662719727 ], [ 135.743942260742188, -12.24169921875 ], [ 135.93780517578125, -12.152149200439453 ], [ 136.00848388671875, -12.19140625 ], [ 136.081832885742188, -12.422460556030273 ], [ 136.260650634765625, -12.433789253234863 ], [ 136.328506469726562, -12.305566787719727 ], [ 136.249893188476562, -12.173047065734863 ], [ 136.443359375, -11.951464653015137 ], [ 136.540237426757812, -11.95761775970459 ], [ 136.609771728515625, -12.133593559265137 ], [ 136.719436645507812, -12.22646427154541 ], [ 136.8974609375, -12.243555068969727 ], [ 136.947463989257812, -12.349902153015137 ], [ 136.537017822265625, -12.784276962280273 ], [ 136.517776489257812, -12.832812309265137 ], [ 136.594329833984375, -13.00380802154541 ], [ 136.461029052734375, -13.225194931030273 ], [ 136.411911010742188, -13.236132621765137 ], [ 136.294143676757812, -13.137988090515137 ], [ 135.927352905273438, -13.30429744720459 ], [ 135.92919921875, -13.62158203125 ], [ 135.989547729492188, -13.81015682220459 ], [ 135.954498291015625, -13.934863090515137 ], [ 135.883407592773438, -14.153124809265137 ], [ 135.405181884765625, -14.758203506469727 ], [ 135.453323364257812, -14.923145294189453 ], [ 136.205368041992188, -15.40341854095459 ], [ 136.291412353515625, -15.570117950439453 ], [ 136.583587646484375, -15.70654296875 ], [ 136.704879760742188, -15.685253143310547 ], [ 136.698150634765625, -15.834961891174316 ], [ 136.78466796875, -15.894237518310547 ], [ 137.002151489257812, -15.87831974029541 ], [ 137.29931640625, -16.066308975219727 ], [ 137.703720092773438, -16.233007431030273 ], [ 137.912887573242188, -16.4765625 ], [ 138.245025634765625, -16.718358993530273 ], [ 139.009872436523438, -16.899314880371094 ], [ 139.1103515625, -17.014062881469727 ], [ 139.248428344726562, -17.32861328125 ], [ 139.440521240234375, -17.38056755065918 ], [ 140.035842895507812, -17.70263671875 ], [ 140.511123657226562, -17.62451171875 ], [ 140.830474853515625, -17.414453506469727 ], [ 140.966018676757812, -17.014551162719727 ], [ 141.219146728515625, -16.64619255065918 ], [ 141.291412353515625, -16.463476181030273 ], [ 141.411911010742188, -16.069530487060547 ], [ 141.393173217773438, -15.904687881469727 ], [ 141.451568603515625, -15.605273246765137 ], [ 141.62548828125, -15.056639671325684 ], [ 141.52294921875, -14.470117568969727 ], [ 141.594329833984375, -14.15283203125 ], [ 141.480667114257812, -13.9267578125 ], [ 141.472564697265625, -13.797558784484863 ], [ 141.645401000976562, -13.259082794189453 ], [ 141.613571166992188, -12.943456649780273 ], [ 141.7822265625, -12.778711318969727 ], [ 141.920303344726562, -12.802929878234863 ], [ 141.929794311523438, -12.73984432220459 ], [ 141.852142333984375, -12.57871150970459 ], [ 141.677734375, -12.491406440734863 ], [ 141.688568115234375, -12.35107421875 ], [ 141.870498657226562, -11.9755859375 ], [ 141.961135864257812, -12.054296493530273 ], [ 141.951568603515625, -11.896191596984863 ], [ 142.138961791992188, -11.273241996765137 ], [ 142.168365478515625, -10.946581840515137 ], [ 142.32647705078125, -10.884180068969727 ], [ 142.456451416015625, -10.707324028015137 ], [ 142.605072021484375, -10.748241424560547 ], [ 142.552734375, -10.874414443969727 ], [ 142.723052978515625, -11.010449409484863 ], [ 142.779678344726562, -11.115331649780273 ], [ 142.836822509765625, -11.306933403015137 ], [ 142.87255859375, -11.821386337280273 ], [ 142.988479614257812, -11.919042587280273 ], [ 143.178909301757812, -11.954492568969727 ], [ 143.099014282226562, -12.225976943969727 ], [ 143.110244750976562, -12.303516387939453 ] ] ], [ [ [ 115.4345703125, -20.66796875 ], [ 115.446189880371094, -20.78779411315918 ], [ 115.388084411621094, -20.866016387939453 ], [ 115.318069458007812, -20.8505859375 ], [ 115.4345703125, -20.66796875 ] ] ], [ [ [ 136.6123046875, -15.544140815734863 ], [ 136.59100341796875, -15.628222465515137 ], [ 136.514251708984375, -15.62734317779541 ], [ 136.522552490234375, -15.543164253234863 ], [ 136.6123046875, -15.544140815734863 ] ] ], [ [ [ 136.846771240234375, -15.62734317779541 ], [ 136.845596313476562, -15.54404354095459 ], [ 136.876861572265625, -15.502538681030273 ], [ 136.890228271484375, -15.5888671875 ], [ 136.846771240234375, -15.62734317779541 ] ] ], [ [ [ 124.482803344726562, -15.34033203125 ], [ 124.550872802734375, -15.270312309265137 ], [ 124.605079650878906, -15.35654354095459 ], [ 124.559562683105469, -15.43017578125 ], [ 124.482803344726562, -15.34033203125 ] ] ], [ [ [ 125.198143005371094, -14.474804878234863 ], [ 125.198829650878906, -14.57949161529541 ], [ 125.134765625, -14.641698837280273 ], [ 125.091209411621094, -14.59169864654541 ], [ 125.117385864257812, -14.49199104309082 ], [ 125.198143005371094, -14.474804878234863 ] ] ], [ [ [ 136.845306396484375, -13.7509765625 ], [ 136.905563354492188, -13.826952934265137 ], [ 136.788177490234375, -13.94580078125 ], [ 136.745315551757812, -14.072656631469727 ], [ 136.787002563476562, -14.157812118530273 ], [ 136.950790405273438, -14.184276580810547 ], [ 136.894332885742188, -14.293066024780273 ], [ 136.33544921875, -14.21181583404541 ], [ 136.427734375, -14.12646484375 ], [ 136.424713134765625, -13.864843368530273 ], [ 136.582809448242188, -13.72109317779541 ], [ 136.701950073242188, -13.681640625 ], [ 136.758010864257812, -13.845410346984863 ], [ 136.804489135742188, -13.842480659484863 ], [ 136.845306396484375, -13.7509765625 ] ] ], [ [ [ 136.215438842773438, -13.664746284484863 ], [ 136.275390625, -13.791112899780273 ], [ 136.213668823242188, -13.8359375 ], [ 136.122650146484375, -13.816601753234863 ], [ 136.215438842773438, -13.664746284484863 ] ] ], [ [ [ 123.595207214355469, -12.43593692779541 ], [ 123.572463989257812, -12.423925399780273 ], [ 123.594528198242188, -12.42568302154541 ], [ 123.595207214355469, -12.43593692779541 ] ] ], [ [ [ 130.502532958984375, -11.835644721984863 ], [ 130.317489624023438, -11.771777153015137 ], [ 130.131256103515625, -11.824511528015137 ], [ 130.043258666992188, -11.787304878234863 ], [ 130.072067260742188, -11.680761337280273 ], [ 130.197555541992188, -11.658203125 ], [ 130.15283203125, -11.4775390625 ], [ 130.294921875, -11.33681583404541 ], [ 130.339263916015625, -11.337011337280273 ], [ 130.459274291992188, -11.679296493530273 ], [ 130.602737426757812, -11.773241996765137 ], [ 130.606246948242188, -11.816600799560547 ], [ 130.502532958984375, -11.835644721984863 ] ] ], [ [ [ 136.479293823242188, -11.465917587280273 ], [ 136.37939453125, -11.583203315734863 ], [ 136.180267333984375, -11.6767578125 ], [ 136.267379760742188, -11.576465606689453 ], [ 136.479293823242188, -11.465917587280273 ] ] ], [ [ [ 131.023040771484375, -11.33437442779541 ], [ 131.268264770507812, -11.189844131469727 ], [ 131.53857421875, -11.436914443969727 ], [ 131.458587646484375, -11.587890625 ], [ 131.3828125, -11.58251953125 ], [ 131.292098999023438, -11.7109375 ], [ 130.95098876953125, -11.926465034484863 ], [ 130.511917114257812, -11.617871284484863 ], [ 130.368560791015625, -11.214941024780273 ], [ 130.426651000976562, -11.18310546875 ], [ 130.618850708007812, -11.37607479095459 ], [ 130.75225830078125, -11.384374618530273 ], [ 130.91278076171875, -11.309277534484863 ], [ 131.023040771484375, -11.33437442779541 ] ] ], [ [ [ 136.710556030273438, -11.158397674560547 ], [ 136.731735229492188, -11.024609565734863 ], [ 136.7802734375, -11.012499809265137 ], [ 136.741409301757812, -11.194628715515137 ], [ 136.526565551757812, -11.438867568969727 ], [ 136.710556030273438, -11.158397674560547 ] ] ], [ [ [ 132.578811645507812, -10.968847274780273 ], [ 132.629104614257812, -11.169140815734863 ], [ 132.573623657226562, -11.318359375 ], [ 132.483779907226562, -11.037304878234863 ], [ 132.578811645507812, -10.968847274780273 ] ] ], [ [ [ 147.104690551757812, -43.412891387939453 ], [ 147.1630859375, -43.430274963378906 ], [ 147.283889770507812, -43.278907775878906 ], [ 147.356063842773438, -43.39697265625 ], [ 147.308883666992188, -43.500782012939453 ], [ 147.15380859375, -43.500194549560547 ], [ 147.104690551757812, -43.412891387939453 ] ] ], [ [ [ 147.296096801757812, -43.161716461181641 ], [ 147.3525390625, -43.080272674560547 ], [ 147.39727783203125, -43.118259429931641 ], [ 147.4345703125, -43.24072265625 ], [ 147.348831176757812, -43.232421875 ], [ 147.296096801757812, -43.161716461181641 ] ] ], [ [ [ 145.28302001953125, -40.769920349121094 ], [ 146.111129760742188, -41.118064880371094 ], [ 146.317489624023438, -41.163478851318359 ], [ 146.574417114257812, -41.142383575439453 ], [ 146.723434448242188, -41.078029632568359 ], [ 146.84814453125, -41.168067932128906 ], [ 146.85662841796875, -41.058300018310547 ], [ 146.91943359375, -41.017772674560547 ], [ 147.320510864257812, -40.956443786621094 ], [ 147.454788208007812, -41.001659393310547 ], [ 147.621688842773438, -40.8447265625 ], [ 147.872955322265625, -40.87255859375 ], [ 147.96875, -40.779590606689453 ], [ 148.215225219726562, -40.854881286621094 ], [ 148.292877197265625, -40.947071075439453 ], [ 148.28759765625, -41.815723419189453 ], [ 148.34259033203125, -42.21533203125 ], [ 148.331253051757812, -42.261619567871094 ], [ 148.290328979492188, -42.254978179931641 ], [ 148.277145385742188, -42.136425018310547 ], [ 148.18310546875, -42.064743041992188 ], [ 148.241607666015625, -42.021873474121094 ], [ 148.213668823242188, -41.970020294189453 ], [ 148.022750854492188, -42.259471893310547 ], [ 148.009384155273438, -42.435939788818359 ], [ 147.912109375, -42.658496856689453 ], [ 147.980850219726562, -43.157032012939453 ], [ 147.785842895507812, -43.220020294189453 ], [ 147.64794921875, -43.020606994628906 ], [ 147.687301635742188, -42.979885101318359 ], [ 147.77392578125, -43.00341796875 ], [ 147.79998779296875, -42.928123474121094 ], [ 147.573837280273438, -42.845703125 ], [ 147.536712646484375, -42.996486663818359 ], [ 147.452346801757812, -43.033397674560547 ], [ 147.408004760742188, -42.893848419189453 ], [ 147.297943115234375, -42.790916442871094 ], [ 147.34765625, -42.926559448242188 ], [ 147.259765625, -43.071094512939453 ], [ 147.245010375976562, -43.215919494628906 ], [ 147.1728515625, -43.255859375 ], [ 146.996963500976562, -43.156349182128906 ], [ 146.987503051757812, -43.21875 ], [ 147.077346801757812, -43.27587890625 ], [ 146.873931884765625, -43.612499237060547 ], [ 146.69921875, -43.601955413818359 ], [ 146.548538208007812, -43.508884429931641 ], [ 146.04315185546875, -43.547168731689453 ], [ 145.994430541992188, -43.376071929931641 ], [ 146.22637939453125, -43.355274200439453 ], [ 146.2080078125, -43.316207885742188 ], [ 145.873245239257812, -43.292381286621094 ], [ 145.609954833984375, -42.998245239257812 ], [ 145.487594604492188, -42.926658630371094 ], [ 145.268157958984375, -42.544338226318359 ], [ 145.198822021484375, -42.230857849121094 ], [ 145.372955322265625, -42.338478088378906 ], [ 145.46826171875, -42.492870330810547 ], [ 145.5166015625, -42.3544921875 ], [ 145.3603515625, -42.2275390625 ], [ 145.3310546875, -42.147068023681641 ], [ 145.23486328125, -42.196971893310547 ], [ 145.238174438476562, -42.019626617431641 ], [ 144.91552734375, -41.64404296875 ], [ 144.777938842773438, -41.418846130371094 ], [ 144.662399291992188, -41.078907012939453 ], [ 144.718551635742188, -40.672267913818359 ], [ 145.04296875, -40.786716461181641 ], [ 145.28302001953125, -40.769920349121094 ] ] ], [ [ [ 144.790817260742188, -40.440330505371094 ], [ 144.78436279296875, -40.506736755371094 ], [ 144.748046875, -40.589454650878906 ], [ 144.710159301757812, -40.485252380371094 ], [ 144.790817260742188, -40.440330505371094 ] ] ], [ [ [ 143.86181640625, -39.737987518310547 ], [ 143.948837280273438, -39.583690643310547 ], [ 144.09130859375, -39.638088226318359 ], [ 144.141021728515625, -39.953807830810547 ], [ 144.035049438476562, -40.078220367431641 ], [ 143.898727416992188, -40.120212554931641 ], [ 143.838577270507812, -39.904102325439453 ], [ 143.86181640625, -39.737987518310547 ] ] ], [ [ [ 145.2177734375, -38.458591461181641 ], [ 145.355072021484375, -38.557033538818359 ], [ 145.12841796875, -38.527633666992188 ], [ 145.2177734375, -38.458591461181641 ] ] ], [ [ [ 145.295303344726562, -38.318946838378906 ], [ 145.486526489257812, -38.354881286621094 ], [ 145.335845947265625, -38.420993804931641 ], [ 145.2802734375, -38.390625 ], [ 145.295303344726562, -38.318946838378906 ] ] ], [ [ [ 138.066513061523438, -35.900588989257812 ], [ 137.835556030273438, -35.867771148681641 ], [ 137.6708984375, -35.89794921875 ], [ 137.590240478515625, -36.027149200439453 ], [ 137.44842529296875, -36.074806213378906 ], [ 137.209564208984375, -35.982421875 ], [ 137.147750854492188, -36.0390625 ], [ 136.75506591796875, -36.033107757568359 ], [ 136.540634155273438, -35.89013671875 ], [ 136.638671875, -35.748828887939453 ], [ 137.334075927734375, -35.592479705810547 ], [ 137.5849609375, -35.620216369628906 ], [ 137.635452270507812, -35.656444549560547 ], [ 137.596481323242188, -35.738670349121094 ], [ 138.046585083007812, -35.755176544189453 ], [ 138.123428344726562, -35.852340698242188 ], [ 138.066513061523438, -35.900588989257812 ] ] ], [ [ [ 146.298828125, -18.484766006469727 ], [ 146.191299438476562, -18.362890243530273 ], [ 146.098831176757812, -18.251758575439453 ], [ 146.2783203125, -18.231250762939453 ], [ 146.341995239257812, -18.400096893310547 ], [ 146.298828125, -18.484766006469727 ] ] ], [ [ [ 139.570892333984375, -17.094432830810547 ], [ 139.421676635742188, -17.131641387939453 ], [ 139.408203125, -17.090625762939453 ], [ 139.492782592773438, -16.99043083190918 ], [ 139.570892333984375, -17.094432830810547 ] ] ], [ [ [ 139.159576416015625, -16.74169921875 ], [ 139.162704467773438, -16.625879287719727 ], [ 139.29296875, -16.46728515625 ], [ 139.587890625, -16.39521598815918 ], [ 139.69775390625, -16.514942169189453 ], [ 139.559677124023438, -16.529491424560547 ], [ 139.430572509765625, -16.661035537719727 ], [ 139.159576416015625, -16.74169921875 ] ] ], [ [ [ 136.942672729492188, -15.71171760559082 ], [ 137.009567260742188, -15.59482479095459 ], [ 137.064544677734375, -15.662890434265137 ], [ 137.093658447265625, -15.778124809265137 ], [ 137.050872802734375, -15.824414253234863 ], [ 136.942672729492188, -15.71171760559082 ] ] ], [ [ [ 142.274810791015625, -10.704785346984863 ], [ 142.19140625, -10.762011528015137 ], [ 142.13720703125, -10.73193359375 ], [ 142.131057739257812, -10.640625 ], [ 142.197952270507812, -10.591992378234863 ], [ 142.274810791015625, -10.704785346984863 ] ] ], [ [ [ 142.338973999023438, -10.192187309265137 ], [ 142.279403686523438, -10.254199981689453 ], [ 142.195114135742188, -10.19931697845459 ], [ 142.21875, -10.149413108825684 ], [ 142.298721313476562, -10.140430450439453 ], [ 142.338973999023438, -10.192187309265137 ] ] ], [ [ [ 142.192001342773438, -10.085253715515137 ], [ 142.141983032226562, -10.181249618530273 ], [ 142.09765625, -10.121777534484863 ], [ 142.148834228515625, -10.0517578125 ], [ 142.192001342773438, -10.085253715515137 ] ] ], [ [ [ 158.958877563476562, -54.472362518310547 ], [ 158.84521484375, -54.749217987060547 ], [ 158.89697265625, -54.506053924560547 ], [ 158.958877563476562, -54.472362518310547 ] ] ], [ [ [ 148.072555541992188, -42.593166351318359 ], [ 148.169540405273438, -42.651760101318359 ], [ 148.104293823242188, -42.71044921875 ], [ 148.029693603515625, -42.71484375 ], [ 148.022750854492188, -42.640430450439453 ], [ 148.072555541992188, -42.593166351318359 ] ] ], [ [ [ 148.193161010742188, -40.503124237060547 ], [ 148.18780517578125, -40.592578887939453 ], [ 148.117279052734375, -40.521484375 ], [ 148.193161010742188, -40.503124237060547 ] ] ], [ [ [ 148.319427490234375, -40.4345703125 ], [ 148.1025390625, -40.45166015625 ], [ 148.010452270507812, -40.380565643310547 ], [ 148.326278686523438, -40.306934356689453 ], [ 148.474212646484375, -40.432422637939453 ], [ 148.352737426757812, -40.497264862060547 ], [ 148.319427490234375, -40.4345703125 ] ] ], [ [ [ 148.25079345703125, -40.099510192871094 ], [ 148.313568115234375, -40.173534393310547 ], [ 148.10565185546875, -40.262111663818359 ], [ 147.890518188476562, -40.014549255371094 ], [ 147.876266479492188, -39.905467987060547 ], [ 147.767181396484375, -39.870315551757812 ], [ 147.932998657226562, -39.725975036621094 ], [ 148.000396728515625, -39.757614135742188 ], [ 148.177932739257812, -39.9384765625 ], [ 148.29736328125, -39.985740661621094 ], [ 148.25079345703125, -40.099510192871094 ] ] ], [ [ [ 153.521881103515625, -27.422462463378906 ], [ 153.452743530273438, -27.71171760559082 ], [ 153.426559448242188, -27.706445693969727 ], [ 153.40087890625, -27.50566291809082 ], [ 153.435440063476562, -27.405370712280273 ], [ 153.521881103515625, -27.422462463378906 ] ] ], [ [ [ 153.466796875, -27.0380859375 ], [ 153.442474365234375, -27.316015243530273 ], [ 153.4208984375, -27.330957412719727 ], [ 153.365036010742188, -27.138866424560547 ], [ 153.3798828125, -27.049413681030273 ], [ 153.466796875, -27.0380859375 ] ] ], [ [ [ 153.051559448242188, -25.354297637939453 ], [ 153.0380859375, -25.193164825439453 ], [ 153.189254760742188, -25.07050895690918 ], [ 153.241989135742188, -24.92255973815918 ], [ 153.143753051757812, -24.814844131469727 ], [ 153.256927490234375, -24.728906631469727 ], [ 153.297958374023438, -24.915233612060547 ], [ 153.359268188476562, -24.977733612060547 ], [ 153.350189208984375, -25.063085556030273 ], [ 153.051956176757812, -25.7783203125 ], [ 152.976669311523438, -25.551366806030273 ], [ 153.051559448242188, -25.354297637939453 ] ] ], [ [ [ 151.295806884765625, -23.720312118530273 ], [ 151.23828125, -23.775781631469727 ], [ 151.184173583984375, -23.74072265625 ], [ 151.033294677734375, -23.530176162719727 ], [ 151.059967041015625, -23.460546493530273 ], [ 151.240142822265625, -23.529687881469727 ], [ 151.295806884765625, -23.720312118530273 ] ] ], [ [ [ 150.548828125, -22.30693244934082 ], [ 150.46240234375, -22.307716369628906 ], [ 150.488479614257812, -22.210742950439453 ], [ 150.521484375, -22.228321075439453 ], [ 150.548828125, -22.30693244934082 ] ] ], [ [ [ 149.912307739257812, -22.048730850219727 ], [ 149.893646240234375, -22.223243713378906 ], [ 149.875381469726562, -22.074024200439453 ], [ 149.912307739257812, -22.048730850219727 ] ] ], [ [ [ 149.045318603515625, -20.277538299560547 ], [ 148.938873291015625, -20.28369140625 ], [ 148.981048583984375, -20.153514862060547 ], [ 149.00439453125, -20.22148323059082 ], [ 149.045318603515625, -20.277538299560547 ] ] ], [ [ [ 148.956253051757812, -20.134668350219727 ], [ 148.88690185546875, -20.1435546875 ], [ 148.967880249023438, -20.044336318969727 ], [ 148.956253051757812, -20.134668350219727 ] ] ] ] } }
]
}
